BEIDOU-2 IGSO-1
1 36828U 10036A   26086.63883915 -.00000150  00000+0  00000+0 0  9997
2 36828  54.2909 163.6978 0057461 222.7538 133.1758  1.00295665 57273
BEIDOU-2 IGSO-2
1 37256U 10068A   26103.89455201 -.00000183  00000+0  00000+0 0  9995
2 37256  47.6625 272.6238 0048739 212.5976 142.7528  1.00246065 56147
BEIDOU-2 IGSO-3
1 37384U 11013A   26104.59297706 -.00000186  00000+0  00000+0 0  9993
2 37384  62.3257  40.7546 0034202 188.5733 294.8262  1.00283798 55027
BEIDOU-2 IGSO-4
1 37763U 11038A   26103.63933775 -.00000015  00000+0  00000+0 0  9999
2 37763  54.5871 166.2622 0157943 231.6338 126.7939  1.00258547 53993
BEIDOU-2 IGSO-5
1 37948U 11073A   26104.59307534 -.00000140  00000+0  00000+0 0  9996
2 37948  47.7972 272.3293 0110193 220.6554  17.4359  1.00262925 52492
BEIDOU-3S IGSO-1S
1 40549U 15019A   26100.00552815 -.00000147  00000+0  00000+0 0  9994
2 40549  49.3232 296.2806 0036225 190.5717 169.1215  1.00259306 40384
BEIDOU-3S IGSO-2S
1 40938U 15053A   26103.89281867 -.00000147  00000+0  00000+0 0  9990
2 40938  49.3249 259.5451 0062816 190.0150 170.7941  1.00274949 38711
BEIDOU-2 IGSO-6
1 41434U 16021A   26104.59717682 -.00000160  00000+0  00000+0 0  9990
2 41434  60.1429  38.6732 0058159 233.1103 241.4220  1.00270693 36844
BEIDOU-2 IGSO-7
1 43539U 18057A   26098.60612922 -.00000109  00000+0  00000+0 0  9997
2 43539  55.1848 163.6675 0102136 237.2229 127.1361  1.00273248 28436
ICEYE-X2
1 43800U 18099AU  26104.56798895  .00004090  00000+0  21035-3 0  9998
2 43800  97.4425 159.5509 0011203 156.3701 203.8049 15.16949073403178
ICEYE-X4
1 44390U 19038D   26104.63343185  .00006177  00000+0  22927-3 0  9992
2 44390  97.8830 133.8618 0014533 161.0198 199.1584 15.27889382372090
ICEYE-X7
1 46496U 20068L   26104.60455403  .00006312  00000+0  21905-3 0  9996
2 46496  97.7453  68.3350 0007751 176.2233 183.9067 15.30145196305068
ICEYE-X6
1 46497U 20068M   26104.60268049  .00001667  00000+0  12497-3 0  9999
2 46497  98.0960  95.2596 0006136 312.2596  47.8107 15.04176297303672
ICEYE-X33
1 60548U 24149CJ  26104.16864600  .00002962  00000+0  23435-3 0  9995
2 60548  97.7120 183.7400 0004112  40.2359 319.9169 15.01394058 90604
ICEYE-X52
1 64572U 25135AW  26104.61994407  .00001048  00000+0  10536-3 0  9993
2 64572  97.7659 219.6083 0002496 147.3125 212.8249 14.93327177 44394
ICEYE-X57
1 64578U 25135BC  26104.59723907  .00002885  00000+0  23161-3 0  9999
2 64578  97.7735 220.9535 0002229  53.2166 306.9262 15.00865622 44487
ICEYE-X55
1 64581U 25135BF  26104.58136421  .00001896  00000+0  17942-3 0  9992
2 64581  97.7655 219.9706 0003230 177.2092 182.9147 14.94826348 44419
ICEYE-X53
1 64584U 25135BJ  26104.55582546  .00001873  00000+0  15200-3 0  9995
2 64584  97.7408 221.5967 0002350 159.4421 200.6898 15.00865107 44534
