[ {"OBJECT_NAME": "BEIDOU-2 IGSO-1 (C06)", "NORAD_CAT_ID": 36828, "MEAN_MOTION": 1.00295665, "ECCENTRICITY": 0.0057461, "INCLINATION": 54.2909, "RA_OF_ASC_NODE": 163.6978, "ARG_OF_PERICENTER": 222.7538, "MEAN_ANOMALY": 133.1758, "BSTAR": 0.0, "EPOCH": "2026-03-27T15:19:55"}, {"OBJECT_NAME": "BEIDOU-2 IGSO-2 (C07)", "NORAD_CAT_ID": 37256, "MEAN_MOTION": 1.00246065, "ECCENTRICITY": 0.0048739, "INCLINATION": 47.6625, "RA_OF_ASC_NODE": 272.6238, "ARG_OF_PERICENTER": 212.5976, "MEAN_ANOMALY": 142.7528, "BSTAR": 0.0, "EPOCH": "2026-04-13T21:28:09"}, {"OBJECT_NAME": "BEIDOU-2 IGSO-3 (C08)", "NORAD_CAT_ID": 37384, "MEAN_MOTION": 1.00283798, "ECCENTRICITY": 0.0034202, "INCLINATION": 62.3257, "RA_OF_ASC_NODE": 40.7546, "ARG_OF_PERICENTER": 188.5733, "MEAN_ANOMALY": 294.8262, "BSTAR": 0.0, "EPOCH": "2026-04-14T14:13:53"}, {"OBJECT_NAME": "BEIDOU-2 IGSO-4 (C09)", "NORAD_CAT_ID": 37763, "MEAN_MOTION": 1.00258547, "ECCENTRICITY": 0.0157943, "INCLINATION": 54.5871, "RA_OF_ASC_NODE": 166.2622, "ARG_OF_PERICENTER": 231.6338, "MEAN_ANOMALY": 126.7939, "BSTAR": 0.0, "EPOCH": "2026-04-13T15:20:38"}, {"OBJECT_NAME": "BEIDOU-2 IGSO-5 (C10)", "NORAD_CAT_ID": 37948, "MEAN_MOTION": 1.00262925, "ECCENTRICITY": 0.0110193, "INCLINATION": 47.7972, "RA_OF_ASC_NODE": 272.3293, "ARG_OF_PERICENTER": 220.6554, "MEAN_ANOMALY": 17.4359, "BSTAR": 0.0, "EPOCH": "2026-04-14T14:14:01"}, {"OBJECT_NAME": "BEIDOU-3S IGSO-1S (C31)", "NORAD_CAT_ID": 40549, "MEAN_MOTION": 1.00259306, "ECCENTRICITY": 0.0036225, "INCLINATION": 49.3232, "RA_OF_ASC_NODE": 296.2806, "ARG_OF_PERICENTER": 190.5717, "MEAN_ANOMALY": 169.1215, "BSTAR": 0.0, "EPOCH": "2026-04-10T00:07:57"}, {"OBJECT_NAME": "BEIDOU-3S IGSO-2S (C56)", "NORAD_CAT_ID": 40938, "MEAN_MOTION": 1.00274949, "ECCENTRICITY": 0.0062816, "INCLINATION": 49.3249, "RA_OF_ASC_NODE": 259.5451, "ARG_OF_PERICENTER": 190.015, "MEAN_ANOMALY": 170.7941, "BSTAR": 0.0, "EPOCH": "2026-04-13T21:25:39"}, {"OBJECT_NAME": "BEIDOU-2 IGSO-6 (C13)", "NORAD_CAT_ID": 41434, "MEAN_MOTION": 1.00270693, "ECCENTRICITY": 0.0058159, "INCLINATION": 60.1429, "RA_OF_ASC_NODE": 38.6732, "ARG_OF_PERICENTER": 233.1103, "MEAN_ANOMALY": 241.422, "BSTAR": 0.0, "EPOCH": "2026-04-14T14:19:56"}, {"OBJECT_NAME": "BEIDOU-2 IGSO-7 (C16)", "NORAD_CAT_ID": 43539, "MEAN_MOTION": 1.00273248, "ECCENTRICITY": 0.0102136, "INCLINATION": 55.1848, "RA_OF_ASC_NODE": 163.6675, "ARG_OF_PERICENTER": 237.2229, "MEAN_ANOMALY": 127.1361, "BSTAR": 0.0, "EPOCH": "2026-04-08T14:32:49"}, {"OBJECT_NAME": "ICEYE-X2", "NORAD_CAT_ID": 43800, "MEAN_MOTION": 15.16949073, "ECCENTRICITY": 0.0011203, "INCLINATION": 97.4425, "RA_OF_ASC_NODE": 159.5509, "ARG_OF_PERICENTER": 156.3701, "MEAN_ANOMALY": 203.8049, "BSTAR": 0.00021035000000000002, "EPOCH": "2026-04-14T13:37:54"}, {"OBJECT_NAME": "ICEYE-X6", "NORAD_CAT_ID": 46497, "MEAN_MOTION": 15.04176297, "ECCENTRICITY": 0.0006136, "INCLINATION": 98.096, "RA_OF_ASC_NODE": 95.2596, "ARG_OF_PERICENTER": 312.2596, "MEAN_ANOMALY": 47.8107, "BSTAR": 0.00012497, "EPOCH": "2026-04-14T14:27:51"}, {"OBJECT_NAME": "ICEYE-X52", "NORAD_CAT_ID": 64572, "MEAN_MOTION": 14.93327177, "ECCENTRICITY": 0.0002496, "INCLINATION": 97.7659, "RA_OF_ASC_NODE": 219.6083, "ARG_OF_PERICENTER": 147.3125, "MEAN_ANOMALY": 212.8249, "BSTAR": 0.00010536, "EPOCH": "2026-04-14T14:52:43"}, {"OBJECT_NAME": "ICEYE-X57", "NORAD_CAT_ID": 64578, "MEAN_MOTION": 15.00865622, "ECCENTRICITY": 0.0002229, "INCLINATION": 97.7735, "RA_OF_ASC_NODE": 220.9535, "ARG_OF_PERICENTER": 53.2166, "MEAN_ANOMALY": 306.9262, "BSTAR": 0.00023161000000000001, "EPOCH": "2026-04-14T14:20:01"}, {"OBJECT_NAME": "ICEYE-X4", "NORAD_CAT_ID": 44390, "MEAN_MOTION": 15.27889382, "ECCENTRICITY": 0.0014533, "INCLINATION": 97.883, "RA_OF_ASC_NODE": 133.8618, "ARG_OF_PERICENTER": 161.0198, "MEAN_ANOMALY": 199.1584, "BSTAR": 0.00022927, "EPOCH": "2026-04-14T15:12:08"}, {"OBJECT_NAME": "ICEYE-X55", "NORAD_CAT_ID": 64581, "MEAN_MOTION": 14.94826348, "ECCENTRICITY": 0.000323, "INCLINATION": 97.7655, "RA_OF_ASC_NODE": 219.9706, "ARG_OF_PERICENTER": 177.2092, "MEAN_ANOMALY": 182.9147, "BSTAR": 0.00017941999999999999, "EPOCH": "2026-04-14T13:57:09"}, {"OBJECT_NAME": "ICEYE-X33", "NORAD_CAT_ID": 60548, "MEAN_MOTION": 15.01394058, "ECCENTRICITY": 0.0004112, "INCLINATION": 97.712, "RA_OF_ASC_NODE": 183.74, "ARG_OF_PERICENTER": 40.2359, "MEAN_ANOMALY": 319.9169, "BSTAR": 0.00023435, "EPOCH": "2026-04-14T04:02:51"}, {"OBJECT_NAME": "ICEYE-X7", "NORAD_CAT_ID": 46496, "MEAN_MOTION": 15.30145196, "ECCENTRICITY": 0.0007751, "INCLINATION": 97.7453, "RA_OF_ASC_NODE": 68.335, "ARG_OF_PERICENTER": 176.2233, "MEAN_ANOMALY": 183.9067, "BSTAR": 0.00021905, "EPOCH": "2026-04-14T14:30:33"}, {"OBJECT_NAME": "ICEYE-X53", "NORAD_CAT_ID": 64584, "MEAN_MOTION": 15.00865107, "ECCENTRICITY": 0.000235, "INCLINATION": 97.7408, "RA_OF_ASC_NODE": 221.5967, "ARG_OF_PERICENTER": 159.4421, "MEAN_ANOMALY": 200.6898, "BSTAR": 0.000152, "EPOCH": "2026-04-14T13:20:23"}]